0 SL-8 R/B
1 04391U 70036J   13282.09949578 -.00000070  00000-0 -44082-3 0   137
2 04391 074.0251 131.7195 0075522 121.0698 026.4200 12.34954904959348
0 SL-8 R/B
1 04391U 70036J   13284.12193279 -.00000084  00000-0 -54815-3 0   143
2 04391 074.0251 129.1059 0075510 118.0865 017.8753 12.34954811959598
0 SL-8 R/B
1 04391U 70036J   13286.14696148 -.00000101  00000-0 -67976-3 0   153
2 04391 074.0251 126.4891 0075491 115.1033 020.8453 12.34954749959844
0 SL-8 R/B
1 04391U 70036J   13288.47898454 -.00000107  00000-0 -73330-3 0   163
2 04391 074.0250 123.4754 0075482 111.6619 308.6731 12.34954473960133
0 SL-8 R/B
1 04391U 70036J   13290.58376536 -.00000100  00000-0 -67150-3 0   177
2 04391 074.0250 120.7553 0075483 108.5653 306.2047 12.34954109960392
0 SL-8 R/B
1 04391U 70036J   13292.86219627 -.00000092  00000-0 -61030-3 0   189
2 04391 074.0252 117.8107 0075483 105.2099 355.7596 12.34953432960671
0 SL-8 R/B
1 04391U 70036J   13295.13838134 -.00000072  00000-0 -45196-3 0   196
2 04391 074.0256 114.8690 0075485 101.8592 035.3236 12.34953011960957
